[{"OBJECT_NAME":"STARLINK-5088","OBJECT_ID":"2022-125AN","EPOCH":"2026-03-09T15:30:28.963584","MEAN_MOTION":15.08839008,"ECCENTRICITY":0.000136,"INCLINATION":53.2176,"RA_OF_ASC_NODE":204.5061,"ARG_OF_PERICENTER":85.5742,"MEAN_ANOMALY":274.5406,"EPHEMERIS_TYPE":0,"CLASSIFICATION_TYPE":"U","NORAD_CAT_ID":54000,"ELEMENT_SET_NO":999,"REV_AT_EPOCH":18959,"BSTAR":4.1347e-5,"MEAN_MOTION_DOT":3.7e-6,"MEAN_MOTION_DDOT":0},{"OBJECT_NAME":"UNKNOWN","OBJECT_ID":"","EPOCH":"2026-03-07T17:21:07.805664","MEAN_MOTION":15.09455608,"ECCENTRICITY":0.0009057,"INCLINATION":82.8696,"RA_OF_ASC_NODE":177.6495,"ARG_OF_PERICENTER":167.3062,"MEAN_ANOMALY":192.8398,"EPHEMERIS_TYPE":0,"CLASSIFICATION_TYPE":"U","NORAD_CAT_ID":87725,"ELEMENT_SET_NO":999,"REV_AT_EPOCH":64668,"BSTAR":0.0060116,"MEAN_MOTION_DOT":0.00097492,"MEAN_MOTION_DDOT":0}]
